HORUS 1                 
1 55690U 23025A   26165.26278240  .00005461  00000+0  23121-3 0  9995
2 55690  97.3470 239.9198 0002351 121.7038 238.4428 15.23576508183602
STARLINK-5592           
1 55741U 23028A   26165.26708223 -.00000038  00000+0  46369-5 0  9991
2 55741  70.0004   1.0673 0002522 270.9304  89.1566 14.98329264180695
STARLINK-5594           
1 55742U 23028B   26165.27125558 -.00000170  00000+0 -64660-5 0  9999
2 55742  70.0001   1.0823 0002293 270.1603  89.9293 14.98329838180501
STARLINK-5602           
1 55743U 23028C   26165.27542906 -.00000060  00000+0  27926-5 0  9991
2 55743  69.9998   1.0983 0002976 269.1056  90.9762 14.98329831180505
STARLINK-5601           
1 55744U 23028D   26165.27142743  .00000944  00000+0  86922-4 0  9997
2 55744  70.0013   1.0833 0002553 273.9852  86.1015 14.98312302180502
STARLINK-5579           
1 55746U 23028F   26165.24203467  .00000147  00000+0  20129-4 0  9999
2 55746  69.9996   0.9794 0002807 267.7495  92.3343 14.98331997180505
STARLINK-5539           
1 55747U 23028G   26165.25873162  .00000099  00000+0  16103-4 0  9999
2 55747  70.0000   1.0378 0002911 268.7914  91.2912 14.98331330180509
STARLINK-5580           
1 55748U 23028H   26164.92074007  .00002722  00000+0  23575-3 0  9999
2 55748  69.9997   1.8653 0003092 264.7628  95.3178 14.98341603180452
STARLINK-5573           
1 55750U 23028K   26165.25039612  .00000934  00000+0  86131-4 0  9993
2 55750  69.9995   1.0081 0002993 274.3413  85.7404 14.98315392180505
STARLINK-5577           
1 55751U 23028L   26165.26290616  .00000054  00000+0  12299-4 0  9995
2 55751  70.0001   1.0526 0003007 269.6319  90.4496 14.98330928180506
STARLINK-5613           
1 55752U 23028M   26164.95831284 -.00003853  00000+0 -31527-3 0  9999
2 55752  69.9994   1.5966 0002751 264.7386  95.3459 14.98334847180465
STARLINK-5617           
1 55753U 23028N   26164.97516482  .00000687  00000+0  65389-4 0  9996
2 55753  69.9993   1.6539 0003043 269.8462  90.2349 14.98333369180468
STARLINK-5612           
1 55754U 23028P   26164.96664853  .00000235  00000+0  27470-4 0  9990
2 55754  69.9992   1.6234 0002775 270.7763  89.3078 14.98328526180463
STARLINK-5614           
1 55756U 23028R   26164.94995098  .00000252  00000+0  28919-4 0  9996
2 55756  69.9994   1.5643 0002778 268.3132  91.7708 14.98329545180465
STARLINK-5544           
1 55757U 23028S   26164.97082243  .00000354  00000+0  37498-4 0  9994
2 55757  69.9994   1.6382 0002674 270.9960  89.0893 14.98329546180466
STARLINK-5072           
1 55758U 23028T   26164.96249124  .00000717  00000+0  67888-4 0  9996
2 55758  69.9993   1.6086 0002973 274.2697  85.8122 14.98326122180469
STARLINK-5532           
1 55760U 23028V   26165.27957623  .00000343  00000+0  36519-4 0  9996
2 55760  69.9999   0.7091 0002873 269.4788  90.6042 14.98329869180512
STARLINK-5611           
1 55761U 23028W   26165.19191326  .00000033  00000+0  10537-4 0  9996
2 55761  69.9994 341.3255 0002999 268.6318  91.4497 14.98330368180983
STARLINK-5603           
1 55762U 23028X   26164.91220583  .00000675  00000+0  64384-4 0  9995
2 55762  69.9992 341.9532 0002894 268.3354  91.7473 14.98320335180943
STARLINK-5593           
1 55763U 23028Y   26164.95412567  .00000097  00000+0  15954-4 0  9992
2 55763  69.9997   1.5796 0003254 273.5019  86.5768 14.98328721180460
STARLINK-5499           
1 55764U 23028Z   26164.91636593  .00000658  00000+0  62968-4 0  9996
2 55764  69.9994 341.9677 0003155 267.7027  92.3771 14.98326578180941
STARLINK-5595           
1 55765U 23028AA  26164.92052144  .00001248  00000+0  11232-3 0  9995
2 55765  69.9992 341.9821 0002909 267.8962  92.1864 14.98340907180949
STARLINK-5599           
1 55766U 23028AB  26165.22929302  .00000605  00000+0  58542-4 0  9991
2 55766  69.9996 341.0531 0003311 270.0562  90.0218 14.98314688180995
STARLINK-5606           
1 55767U 23028AC  26165.19175112  .00001597  00000+0  14162-3 0  9990
2 55767  69.9996 341.3242 0002981 268.3833  91.6985 14.98338250180967
STARLINK-5584           
1 55769U 23028AE  26165.23764302  .00000811  00000+0  75765-4 0  9997
2 55769  69.9996 341.0820 0003185 263.5997  96.4800 14.98339687180990
STARLINK-5557           
1 55770U 23028AF  26165.23344815  .00000695  00000+0  66033-4 0  9990
2 55770  70.0001 341.0673 0002744 265.2775  94.8070 14.98346675180997
STARLINK-5591           
1 55771U 23028AG  26165.22512475 -.00002602  00000+0 -21033-3 0  9991
2 55771  69.9994 341.0377 0002544 264.1289  95.9580 14.98338029180995
STARLINK-5835           
1 55772U 23028AH  26165.25002315  .00015326  00000+0  12899-2 0  9996
2 55772  70.0006 340.8759 0002837 267.4434 316.1030 14.98318203  5667
STARLINK-5833           
1 55773U 23028AJ  26164.90801174 -.00000111  00000+0 -15414-5 0  9995
2 55773  69.9993 341.9363 0002746 269.8706  90.2138 14.98330338180947
STARLINK-5812           
1 55774U 23028AK  26165.22094281 -.00000771  00000+0 -56842-4 0  9996
2 55774  70.0000 341.0233 0002751 273.2492  86.8352 14.98334094180991
STARLINK-5809           
1 55775U 23028AL  26165.21676642  .00000108  00000+0  16840-4 0  9999
2 55775  69.9996 341.0089 0002857 266.5537  93.5295 14.98329983180996
STARLINK-5814           
1 55777U 23028AN  26165.20841853  .00000057  00000+0  12541-4 0  9995
2 55777  69.9991 340.9790 0002761 270.4646  89.6197 14.98331258180994
STARLINK-5816           
1 55778U 23028AP  26165.20424335 -.00000104  00000+0 -94773-6 0  9992
2 55778  69.9994 340.9648 0002683 269.6154  90.4698 14.98329916180991
STARLINK-5817           
1 55779U 23028AQ  26164.84100053  .00000206  00000+0  25079-4 0  9992
2 55779  70.0001 321.8226 0003184 268.4345  91.6449 14.98330106181430
STARLINK-5819           
1 55780U 23028AR  26165.20006682 -.00001581  00000+0 -12470-3 0  9997
2 55780  69.9994 340.9501 0003027 264.2179  95.8635 14.98338041180992
STARLINK-5820           
1 55781U 23028AS  26164.87879477 -.00000232  00000+0 -11644-4 0  9995
2 55781  69.9995 341.8696 0002779 269.1534  90.9307 14.98329167180947
STARLINK-5826           
1 55782U 23028AT  26164.83701860  .00000533  00000+0  52458-4 0  9992
2 55782  69.9996 322.2153 0002906 266.8101  93.2726 14.98330508181422
STARLINK-5825           
1 55783U 23028AU  26164.83685414  .00000076  00000+0  14195-4 0  9997
2 55783  69.9998 322.2134 0003114 268.8449  91.2353 14.98329237181424
STARLINK-5797           
1 55784U 23028AV  26165.25002315  .00054969  00000+0  45823-2 0  9998
2 55784  70.0003 321.0707 0002716 267.9283 249.3020 14.98299979  5714
STARLINK-5818           
1 55785U 23028AW  26164.83268601  .00001068  00000+0  97228-4 0  9994
2 55785  69.9994 322.1985 0002309 279.1411  80.9486 14.98342482181423
STARLINK-5823           
1 55786U 23028AX  26165.25002315  .00055734  00000+0  46452-2 0  9990
2 55786  70.0004 321.0701 0003135 267.8906 250.2363 14.98300671  5711
STARLINK-5811           
1 55787U 23028AY  26165.16230612 -.00000225  00000+0 -11066-4 0  9996
2 55787  69.9994 321.3423 0002931 269.6690  90.4134 14.98329223181476
STARLINK-5804           
1 55788U 23028AZ  26165.15813179 -.00000439  00000+0 -28966-4 0  9995
2 55788  69.9992 321.3280 0002589 265.7413  94.3451 14.98332961181473
STARLINK-5815           
1 55789U 23028BA  26165.13309305  .00000665  00000+0  63489-4 0  9993
2 55789  69.9995 321.2389 0003156 261.5508  98.5294 14.98339215181476
STARLINK-5813           
1 55790U 23028BB  26164.87039316  .00000979  00000+0  89804-4 0  9994
2 55790  69.9996 321.9290 0003095 268.2890  91.7914 14.98334246181436
STARLINK-5807           
1 55791U 23028BC  26165.14979807 -.00001739  00000+0 -13805-3 0  9998
2 55791  70.0007 321.2979 0002820 270.1315  89.9521 14.98313840181473
ONEWEB-0530             
1 55796U 23029A   26165.28693324  .00000103  00000+0  22209-3 0  9996
2 55796  87.9182 275.0472 0002326  92.6997 267.4402 13.20771490160760
ONEWEB-0534             
1 55797U 23029B   26165.27514321  .00000080  00000+0  16438-3 0  9996
2 55797  87.9183 275.0502 0001862 100.3350 259.7994 13.20771365160761
ONEWEB-0556             
1 55798U 23029C   26165.28187766  .00000078  00000+0  15964-3 0  9997
2 55798  87.9182 275.0483 0001703  74.2807 285.8514 13.20773834160760
ONEWEB-0562             
1 55799U 23029D   26165.26840609  .00000031  00000+0  44278-4 0  9998
2 55799  87.9184 275.0319 0002390  80.2910 279.8493 13.20770738160765
ONEWEB-0563             
1 55800U 23029E   26165.26336447 -.00000813  00000+0 -20322-2 0  9993
2 55800  87.9183 275.0634 0001751 102.4218 257.7112 13.20775585160752
ONEWEB-0564             
1 55801U 23029F   26165.25663142  .00000101  00000+0  21727-3 0  9997
2 55801  87.9184 275.0381 0002200  91.0597 269.0788 13.20771120160763
ONEWEB-0638             
1 55802U 23029G   26165.04390469  .00002133  00000+0  57179-2 0  9990
2 55802  87.8953 290.3783 0001696  84.5443 275.5881 13.14494395158984
ONEWEB-0639             
1 55803U 23029H   26165.15087944  .00000002  00000+0 -28302-4 0  9996
2 55803  87.9166 305.5808 0001144 125.6595 234.4645 13.19725343158507
ONEWEB-0640             
1 55804U 23029J   26165.28175498 -.00000010  00000+0 -61995-4 0  9998
2 55804  87.8953 290.3219 0001422  81.3816 278.7475 13.14502540159039
ONEWEB-0641             
1 55805U 23029K   26164.91868213 -.00000021  00000+0 -85317-4 0  9998
2 55805  87.9174 305.6160 0001732 102.3718 257.7609 13.19724876158487
ONEWEB-0642             
1 55806U 23029L   26165.29303422  .00000029  00000+0  40181-4 0  9993
2 55806  87.9168 305.5536 0001451 124.6136 235.5134 13.19724741158529
ONEWEB-0643             
1 55807U 23029M   26164.87104487  .00000222  00000+0  56361-3 0  9998
2 55807  87.8951 290.3911 0001790 121.8736 238.2568 13.14503310158958
ONEWEB-0644             
1 55808U 23029N   26165.28828912  .00000122  00000+0  27347-3 0  9992
2 55808  87.9165 305.5560 0001664 108.6130 251.5183 13.19724690158522
